{
"type": "FeatureCollection",
"name": "uttarakhand_boundary",
"crs": { "type": "name", "properties": { "name": "urn:ogc:def:crs:OGC:1.3:CRS84" } },
"features": [
{ "type": "Feature", "properties": { "GID_1": "IND.35_1", "GID_0": "IND", "COUNTRY": "India", "NAME_1": "Uttarakhand", "VARNAME_1": "Uttarakhand", "NL_NAME_1": "NA", "TYPE_1": "State", "ENGTYPE_1": "State", "CC_1": "NA", "HASC_1": "IN.UT", "ISO_1": "IN-UT" }, "geometry": { "type": "MultiPolygon", "coordinates": [ [ [ [ 79.5658, 28.8495 ], [ 79.5572, 28.8457 ], [ 79.5509, 28.8459 ], [ 79.5482, 28.85 ], [ 79.5477, 28.8543 ], [ 79.5512, 28.8632 ], [ 79.554, 28.8785 ], [ 79.5505, 28.8842 ], [ 79.5433, 28.8907 ], [ 79.5365, 28.8925 ], [ 79.5299, 28.8869 ], [ 79.5173, 28.8706 ], [ 79.5072, 28.8633 ], [ 79.4914, 28.8626 ], [ 79.4766, 28.8672 ], [ 79.4678, 28.8649 ], [ 79.4634, 28.8605 ], [ 79.4597, 28.8592 ], [ 79.4335, 28.8616 ], [ 79.4239, 28.8552 ], [ 79.4112, 28.8559 ], [ 79.4062, 28.8623 ], [ 79.4043, 28.8749 ], [ 79.3979, 28.881 ], [ 79.3957, 28.8854 ], [ 79.4011, 28.8998 ], [ 79.399, 28.917 ], [ 79.4014, 28.9214 ], [ 79.4026, 28.929 ], [ 79.4014, 28.9323 ], [ 79.3956, 28.9368 ], [ 79.3894, 28.9383 ], [ 79.377, 28.937 ], [ 79.3734, 28.9419 ], [ 79.3707, 28.9546 ], [ 79.3597, 28.9705 ], [ 79.3529, 28.9612 ], [ 79.3548, 28.9534 ], [ 79.3519, 28.9524 ], [ 79.3072, 28.9585 ], [ 79.3047, 28.9539 ], [ 79.2989, 28.9531 ], [ 79.2789, 28.9648 ], [ 79.2737, 28.9729 ], [ 79.2643, 28.9821 ], [ 79.2394, 28.9999 ], [ 79.2377, 29.0068 ], [ 79.204, 29.0291 ], [ 79.1991, 29.0253 ], [ 79.1976, 29.0221 ], [ 79.183, 29.0242 ], [ 79.1849, 29.018 ], [ 79.1776, 29.0196 ], [ 79.1686, 29.0159 ], [ 79.1656, 29.0173 ], [ 79.1641, 29.0206 ], [ 79.1583, 29.0229 ], [ 79.1545, 29.0274 ], [ 79.1542, 29.0329 ], [ 79.1587, 29.0342 ], [ 79.1602, 29.0433 ], [ 79.1654, 29.0513 ], [ 79.1535, 29.0548 ], [ 79.1437, 29.0601 ], [ 79.137, 29.0693 ], [ 79.1347, 29.0819 ], [ 79.137, 29.0909 ], [ 79.1432, 29.0989 ], [ 79.144, 29.1066 ], [ 79.1422, 29.1197 ], [ 79.1338, 29.1242 ], [ 79.1308, 29.1294 ], [ 79.1178, 29.1339 ], [ 79.1136, 29.1307 ], [ 79.1007, 29.1317 ], [ 79.0729, 29.152 ], [ 79.0595, 29.1563 ], [ 79.0461, 29.1547 ], [ 79.0338, 29.1711 ], [ 79.027, 29.1723 ], [ 79.0231, 29.1708 ], [ 79.0218, 29.1673 ], [ 79.0275, 29.1607 ], [ 79.0287, 29.1524 ], [ 79.0264, 29.1499 ], [ 79.0215, 29.1508 ], [ 79.0134, 29.1577 ], [ 79.011, 29.1572 ], [ 79.0105, 29.153 ], [ 79.0128, 29.1491 ], [ 79.0086, 29.1394 ], [ 79.0088, 29.1362 ], [ 79.0277, 29.133 ], [ 79.031, 29.1302 ], [ 79.0297, 29.1254 ], [ 79.0261, 29.1215 ], [ 79.017, 29.1179 ], [ 79.0066, 29.1205 ], [ 79.0006, 29.1166 ], [ 78.9984, 29.1229 ], [ 78.9947, 29.1254 ], [ 78.9954, 29.1293 ], [ 78.9926, 29.1336 ], [ 78.9835, 29.1373 ], [ 78.9826, 29.147 ], [ 78.979, 29.1548 ], [ 78.9732, 29.1608 ], [ 78.9623, 29.1668 ], [ 78.9606, 29.1659 ], [ 78.9608, 29.1616 ], [ 78.9515, 29.1597 ], [ 78.9489, 29.1528 ], [ 78.9444, 29.1496 ], [ 78.9236, 29.1571 ], [ 78.9208, 29.1529 ], [ 78.9145, 29.149 ], [ 78.9004, 29.1506 ], [ 78.8983, 29.1549 ], [ 78.895, 29.1568 ], [ 78.8996, 29.1614 ], [ 78.9048, 29.1632 ], [ 78.9057, 29.1652 ], [ 78.9033, 29.1677 ], [ 78.9045, 29.1706 ], [ 78.9024, 29.1745 ], [ 78.9057, 29.1775 ], [ 78.9057, 29.1803 ], [ 78.9013, 29.1827 ], [ 78.8991, 29.1906 ], [ 78.8943, 29.1959 ], [ 78.8992, 29.2026 ], [ 78.8936, 29.2048 ], [ 78.8877, 29.2103 ], [ 78.8923, 29.2129 ], [ 78.8921, 29.2149 ], [ 78.8845, 29.2195 ], [ 78.8829, 29.2253 ], [ 78.8701, 29.2285 ], [ 78.8736, 29.2353 ], [ 78.871, 29.2407 ], [ 78.8641, 29.2495 ], [ 78.8544, 29.2554 ], [ 78.8526, 29.2613 ], [ 78.8506, 29.2622 ], [ 78.8423, 29.2543 ], [ 78.8341, 29.2562 ], [ 78.8313, 29.2607 ], [ 78.8138, 29.2523 ], [ 78.7999, 29.2579 ], [ 78.7874, 29.2653 ], [ 78.786, 29.273 ], [ 78.7815, 29.2712 ], [ 78.7586, 29.2867 ], [ 78.7668, 29.2859 ], [ 78.7655, 29.2899 ], [ 78.7611, 29.2933 ], [ 78.7314, 29.311 ], [ 78.7276, 29.3128 ], [ 78.7208, 29.3123 ], [ 78.7139, 29.3174 ], [ 78.7141, 29.3193 ], [ 78.7198, 29.3184 ], [ 78.7211, 29.3195 ], [ 78.7273, 29.3175 ], [ 78.7286, 29.319 ], [ 78.7259, 29.3251 ], [ 78.7257, 29.33 ], [ 78.7283, 29.3342 ], [ 78.7316, 29.3343 ], [ 78.7348, 29.3318 ], [ 78.7415, 29.3326 ], [ 78.7416, 29.3359 ], [ 78.747, 29.3433 ], [ 78.7574, 29.3498 ], [ 78.7653, 29.3457 ], [ 78.7638, 29.3432 ], [ 78.7659, 29.3411 ], [ 78.7791, 29.3423 ], [ 78.7825, 29.3464 ], [ 78.7844, 29.3429 ], [ 78.7813, 29.332 ], [ 78.7888, 29.3293 ], [ 78.7913, 29.335 ], [ 78.7979, 29.3383 ], [ 78.7927, 29.3434 ], [ 78.7901, 29.3521 ], [ 78.7972, 29.3556 ], [ 78.8068, 29.3732 ], [ 78.809, 29.3829 ], [ 78.815, 29.3853 ], [ 78.811, 29.3803 ], [ 78.8118, 29.3723 ], [ 78.8142, 29.37 ], [ 78.8288, 29.3682 ], [ 78.8363, 29.3714 ], [ 78.8319, 29.3766 ], [ 78.8325, 29.3813 ], [ 78.8404, 29.3799 ], [ 78.8568, 29.3856 ], [ 78.8598, 29.3877 ], [ 78.8589, 29.3915 ], [ 78.8602, 29.3939 ], [ 78.8626, 29.3946 ], [ 78.8702, 29.3924 ], [ 78.8728, 29.3986 ], [ 78.8872, 29.409 ], [ 78.8906, 29.4164 ], [ 78.8965, 29.4236 ], [ 78.9004, 29.4467 ], [ 78.9071, 29.4518 ], [ 78.9229, 29.4562 ], [ 78.9198, 29.4601 ], [ 78.9003, 29.4562 ], [ 78.8827, 29.4578 ], [ 78.8754, 29.46 ], [ 78.8658, 29.4596 ], [ 78.8301, 29.4685 ], [ 78.8114, 29.4698 ], [ 78.797, 29.476 ], [ 78.7855, 29.476 ], [ 78.7658, 29.4838 ], [ 78.7391, 29.505 ], [ 78.7315, 29.5057 ], [ 78.7266, 29.5087 ], [ 78.6934, 29.5089 ], [ 78.6396, 29.5478 ], [ 78.6215, 29.5529 ], [ 78.6152, 29.5579 ], [ 78.6052, 29.5618 ], [ 78.5765, 29.5806 ], [ 78.5305, 29.6239 ], [ 78.5274, 29.6244 ], [ 78.5255, 29.6298 ], [ 78.5177, 29.6392 ], [ 78.5115, 29.6507 ], [ 78.5092, 29.6597 ], [ 78.5096, 29.6685 ], [ 78.5076, 29.6729 ], [ 78.5074, 29.6908 ], [ 78.5018, 29.7117 ], [ 78.5003, 29.7153 ], [ 78.4902, 29.7249 ], [ 78.4876, 29.7414 ], [ 78.4736, 29.7485 ], [ 78.4647, 29.751 ], [ 78.4522, 29.7521 ], [ 78.4321, 29.7581 ], [ 78.4243, 29.7617 ], [ 78.4126, 29.7724 ], [ 78.4084, 29.7734 ], [ 78.3984, 29.7721 ], [ 78.386, 29.7739 ], [ 78.3513, 29.7863 ], [ 78.3317, 29.7962 ], [ 78.3029, 29.7576 ], [ 78.2819, 29.7423 ], [ 78.2648, 29.7268 ], [ 78.2314, 29.7041 ], [ 78.2213, 29.7176 ], [ 78.1935, 29.7101 ], [ 78.1822, 29.6916 ], [ 78.1659, 29.6795 ], [ 78.1391, 29.6761 ], [ 78.134, 29.6585 ], [ 78.1148, 29.6452 ], [ 78.107, 29.6332 ], [ 78.0968, 29.6306 ], [ 78.0906, 29.6248 ], [ 78.0887, 29.6133 ], [ 78.0821, 29.6018 ], [ 78.0785, 29.5995 ], [ 78.0592, 29.6016 ], [ 78.0507, 29.5981 ], [ 78.0439, 29.5931 ], [ 78.0365, 29.5809 ], [ 78.0373, 29.5778 ], [ 78.0426, 29.5719 ], [ 78.0372, 29.5653 ], [ 78.0383, 29.5614 ], [ 78.0369, 29.5526 ], [ 78.0326, 29.5517 ], [ 78.0035, 29.5561 ], [ 77.9942, 29.5551 ], [ 77.988, 29.5459 ], [ 77.9789, 29.5541 ], [ 77.9771, 29.5581 ], [ 77.9768, 29.5638 ], [ 77.9788, 29.5682 ], [ 77.9808, 29.5688 ], [ 77.984, 29.5799 ], [ 77.9838, 29.5881 ], [ 77.9823, 29.589 ], [ 77.977, 29.5833 ], [ 77.9727, 29.5832 ], [ 77.9674, 29.5857 ], [ 77.9634, 29.5838 ], [ 77.9599, 29.5862 ], [ 77.9532, 29.5847 ], [ 77.9473, 29.5904 ], [ 77.9532, 29.6024 ], [ 77.9497, 29.6131 ], [ 77.9519, 29.616 ], [ 77.9557, 29.6168 ], [ 77.9624, 29.61 ], [ 77.9703, 29.6135 ], [ 77.9746, 29.6111 ], [ 77.9768, 29.614 ], [ 77.9731, 29.632 ], [ 77.977, 29.6421 ], [ 77.9754, 29.6443 ], [ 77.9717, 29.6446 ], [ 77.9675, 29.6491 ], [ 77.9654, 29.6555 ], [ 77.9728, 29.6725 ], [ 77.9722, 29.6757 ], [ 77.9623, 29.6703 ], [ 77.9518, 29.6857 ], [ 77.9454, 29.6872 ], [ 77.9433, 29.6936 ], [ 77.9463, 29.6955 ], [ 77.9411, 29.7 ], [ 77.9423, 29.702 ], [ 77.952, 29.7054 ], [ 77.9408, 29.7146 ], [ 77.9305, 29.7131 ], [ 77.9272, 29.7146 ], [ 77.9249, 29.7127 ], [ 77.9202, 29.7139 ], [ 77.9107, 29.7055 ], [ 77.908, 29.7053 ], [ 77.9095, 29.7038 ], [ 77.9084, 29.7029 ], [ 77.9063, 29.7041 ], [ 77.9048, 29.7026 ], [ 77.9102, 29.6989 ], [ 77.8999, 29.6978 ], [ 77.8868, 29.7007 ], [ 77.8772, 29.7004 ], [ 77.8739, 29.702 ], [ 77.87, 29.6988 ], [ 77.8699, 29.694 ], [ 77.8662, 29.6934 ], [ 77.8585, 29.6881 ], [ 77.8541, 29.6889 ], [ 77.8486, 29.6842 ], [ 77.8471, 29.6806 ], [ 77.8429, 29.6813 ], [ 77.8343, 29.6719 ], [ 77.829, 29.6693 ], [ 77.8213, 29.669 ], [ 77.7925, 29.6819 ], [ 77.7892, 29.6859 ], [ 77.7974, 29.6978 ], [ 77.7949, 29.7005 ], [ 77.7827, 29.7083 ], [ 77.7698, 29.7099 ], [ 77.7589, 29.7134 ], [ 77.7577, 29.7159 ], [ 77.7679, 29.7306 ], [ 77.7693, 29.7346 ], [ 77.7619, 29.7438 ], [ 77.7609, 29.7527 ], [ 77.7657, 29.7637 ], [ 77.7635, 29.7704 ], [ 77.7654, 29.7757 ], [ 77.7607, 29.7788 ], [ 77.7605, 29.7813 ], [ 77.7647, 29.7855 ], [ 77.753, 29.7974 ], [ 77.7493, 29.8044 ], [ 77.7421, 29.8095 ], [ 77.7413, 29.8114 ], [ 77.744, 29.8163 ], [ 77.7423, 29.8246 ], [ 77.739, 29.8303 ], [ 77.7292, 29.8376 ], [ 77.7309, 29.8419 ], [ 77.7301, 29.8531 ], [ 77.7133, 29.8565 ], [ 77.706, 29.8637 ], [ 77.702, 29.8718 ], [ 77.703, 29.8898 ], [ 77.7111, 29.8881 ], [ 77.713, 29.8916 ], [ 77.7175, 29.8946 ], [ 77.7201, 29.9028 ], [ 77.733, 29.9135 ], [ 77.7288, 29.9286 ], [ 77.7189, 29.9328 ], [ 77.7177, 29.935 ], [ 77.729, 29.9456 ], [ 77.7295, 29.9519 ], [ 77.7401, 29.9589 ], [ 77.745, 29.9676 ], [ 77.7441, 29.9719 ], [ 77.731, 29.9843 ], [ 77.7301, 29.9875 ], [ 77.7408, 29.9941 ], [ 77.7432, 30.006 ], [ 77.7491, 30.0141 ], [ 77.7723, 30.0263 ], [ 77.7733, 30.033 ], [ 77.7576, 30.0482 ], [ 77.7653, 30.0631 ], [ 77.7752, 30.0763 ], [ 77.7801, 30.0892 ], [ 77.7864, 30.1 ], [ 77.7896, 30.1015 ], [ 77.7939, 30.1011 ], [ 77.8081, 30.0902 ], [ 77.8131, 30.0896 ], [ 77.82, 30.0936 ], [ 77.8253, 30.1047 ], [ 77.8385, 30.1123 ], [ 77.8553, 30.1336 ], [ 77.8644, 30.1499 ], [ 77.8655, 30.1551 ], [ 77.896, 30.1863 ], [ 77.9031, 30.2131 ], [ 77.9181, 30.2248 ], [ 77.9293, 30.24 ], [ 77.9315, 30.247 ], [ 77.9254, 30.2487 ], [ 77.9168, 30.2562 ], [ 77.8964, 30.266 ], [ 77.874, 30.2742 ], [ 77.8715, 30.2744 ], [ 77.8655, 30.2705 ], [ 77.861, 30.2714 ], [ 77.8476, 30.2788 ], [ 77.8124, 30.2908 ], [ 77.7513, 30.3246 ], [ 77.7324, 30.3299 ], [ 77.7108, 30.3388 ], [ 77.6977, 30.3503 ], [ 77.6913, 30.3582 ], [ 77.6733, 30.3857 ], [ 77.6718, 30.3839 ], [ 77.6641, 30.384 ], [ 77.6613, 30.3932 ], [ 77.6476, 30.3981 ], [ 77.6457, 30.402 ], [ 77.6342, 30.4109 ], [ 77.6305, 30.4109 ], [ 77.6221, 30.4048 ], [ 77.6145, 30.4058 ], [ 77.6092, 30.4104 ], [ 77.6027, 30.4084 ], [ 77.5925, 30.4095 ], [ 77.5864, 30.408 ], [ 77.5775, 30.4125 ], [ 77.5728, 30.4103 ], [ 77.5671, 30.4048 ], [ 77.5631, 30.4045 ], [ 77.5622, 30.4101 ], [ 77.5629, 30.4171 ], [ 77.5811, 30.4303 ], [ 77.6038, 30.4374 ], [ 77.612, 30.4384 ], [ 77.6167, 30.4362 ], [ 77.6305, 30.4362 ], [ 77.6402, 30.4524 ], [ 77.6467, 30.4525 ], [ 77.6532, 30.4495 ], [ 77.6616, 30.4488 ], [ 77.6791, 30.4517 ], [ 77.6822, 30.4577 ], [ 77.7112, 30.4773 ], [ 77.7214, 30.4778 ], [ 77.755, 30.4983 ], [ 77.7634, 30.5002 ], [ 77.7676, 30.5044 ], [ 77.7882, 30.5061 ], [ 77.7939, 30.5086 ], [ 77.8006, 30.5132 ], [ 77.805, 30.5248 ], [ 77.8106, 30.5332 ], [ 77.8122, 30.538 ], [ 77.8068, 30.5493 ], [ 77.8059, 30.5607 ], [ 77.8032, 30.5638 ], [ 77.7983, 30.5641 ], [ 77.7952, 30.5611 ], [ 77.7906, 30.5603 ], [ 77.7864, 30.5614 ], [ 77.7783, 30.5574 ], [ 77.7709, 30.5624 ], [ 77.7618, 30.563 ], [ 77.7573, 30.5656 ], [ 77.7535, 30.5702 ], [ 77.7436, 30.5898 ], [ 77.7295, 30.5984 ], [ 77.7321, 30.6071 ], [ 77.7348, 30.6082 ], [ 77.7425, 30.6072 ], [ 77.7497, 30.6014 ], [ 77.7544, 30.6007 ], [ 77.7572, 30.6048 ], [ 77.7556, 30.6162 ], [ 77.7566, 30.6203 ], [ 77.7722, 30.6178 ], [ 77.782, 30.6194 ], [ 77.7765, 30.6261 ], [ 77.7713, 30.6285 ], [ 77.7755, 30.6375 ], [ 77.775, 30.6411 ], [ 77.7683, 30.6515 ], [ 77.7791, 30.6638 ], [ 77.7771, 30.6656 ], [ 77.7695, 30.6642 ], [ 77.7659, 30.6653 ], [ 77.7542, 30.6761 ], [ 77.7366, 30.6828 ], [ 77.7334, 30.6858 ], [ 77.7336, 30.6975 ], [ 77.7369, 30.705 ], [ 77.7404, 30.7071 ], [ 77.7411, 30.7107 ], [ 77.7343, 30.7167 ], [ 77.7307, 30.7245 ], [ 77.7222, 30.7306 ], [ 77.7203, 30.7382 ], [ 77.7129, 30.7395 ], [ 77.7072, 30.7455 ], [ 77.6977, 30.745 ], [ 77.6916, 30.7483 ], [ 77.6904, 30.7513 ], [ 77.693, 30.7579 ], [ 77.6883, 30.7687 ], [ 77.6984, 30.7734 ], [ 77.7045, 30.779 ], [ 77.7154, 30.7942 ], [ 77.7194, 30.8083 ], [ 77.7241, 30.811 ], [ 77.734, 30.8241 ], [ 77.7444, 30.8299 ], [ 77.7441, 30.8362 ], [ 77.7315, 30.8508 ], [ 77.7417, 30.8642 ], [ 77.7409, 30.8743 ], [ 77.7418, 30.8783 ], [ 77.7445, 30.8812 ], [ 77.7545, 30.8824 ], [ 77.7603, 30.8778 ], [ 77.7628, 30.8682 ], [ 77.7652, 30.8652 ], [ 77.7736, 30.861 ], [ 77.7894, 30.8585 ], [ 77.7889, 30.865 ], [ 77.7835, 30.8721 ], [ 77.7844, 30.8884 ], [ 77.7864, 30.896 ], [ 77.7946, 30.9035 ], [ 77.8008, 30.9127 ], [ 77.795, 30.9204 ], [ 77.7956, 30.9238 ], [ 77.7934, 30.926 ], [ 77.7819, 30.9262 ], [ 77.7745, 30.9253 ], [ 77.7673, 30.9205 ], [ 77.7456, 30.9223 ], [ 77.7474, 30.9287 ], [ 77.7465, 30.934 ], [ 77.7392, 30.9367 ], [ 77.7367, 30.9396 ], [ 77.7333, 30.9495 ], [ 77.7346, 30.9596 ], [ 77.7363, 30.9636 ], [ 77.7539, 30.9768 ], [ 77.7639, 30.977 ], [ 77.7784, 30.9723 ], [ 77.8023, 30.9551 ], [ 77.8126, 30.9528 ], [ 77.8171, 30.9536 ], [ 77.8193, 30.9568 ], [ 77.8189, 30.9601 ], [ 77.8132, 30.9624 ], [ 77.8046, 30.961 ], [ 77.7964, 30.9698 ], [ 77.7987, 30.9761 ], [ 77.8062, 30.9835 ], [ 77.8075, 30.9938 ], [ 77.8136, 30.9989 ], [ 77.8103, 31.0021 ], [ 77.8101, 31.0052 ], [ 77.8247, 31.0052 ], [ 77.8253, 31.0081 ], [ 77.8188, 31.0158 ], [ 77.8211, 31.0211 ], [ 77.8216, 31.0299 ], [ 77.8151, 31.0339 ], [ 77.805, 31.0541 ], [ 77.8049, 31.0588 ], [ 77.8006, 31.0621 ], [ 77.8069, 31.0623 ], [ 77.8096, 31.0614 ], [ 77.8095, 31.0597 ], [ 77.8147, 31.0609 ], [ 77.8195, 31.0649 ], [ 77.8247, 31.0744 ], [ 77.831, 31.077 ], [ 77.8375, 31.0775 ], [ 77.8428, 31.0813 ], [ 77.8504, 31.0952 ], [ 77.8515, 31.111 ], [ 77.8579, 31.1162 ], [ 77.8787, 31.1247 ], [ 77.8804, 31.1374 ], [ 77.8897, 31.149 ], [ 77.8875, 31.1547 ], [ 77.8928, 31.1573 ], [ 77.9022, 31.1588 ], [ 77.9094, 31.1555 ], [ 77.9147, 31.1566 ], [ 77.9344, 31.1673 ], [ 77.9392, 31.1673 ], [ 77.946, 31.1762 ], [ 77.9548, 31.1788 ], [ 77.9694, 31.1652 ], [ 77.9852, 31.168 ], [ 77.9926, 31.167 ], [ 78.0077, 31.1571 ], [ 78.0142, 31.1549 ], [ 78.0165, 31.1585 ], [ 78.0153, 31.1662 ], [ 78.0162, 31.1715 ], [ 78.0269, 31.1802 ], [ 78.03, 31.1853 ], [ 78.0538, 31.1929 ], [ 78.0755, 31.1929 ], [ 78.0801, 31.1907 ], [ 78.0877, 31.1908 ], [ 78.1098, 31.2057 ], [ 78.1138, 31.2062 ], [ 78.1192, 31.214 ], [ 78.1349, 31.2161 ], [ 78.1371, 31.2224 ], [ 78.1436, 31.2241 ], [ 78.1478, 31.2316 ], [ 78.1554, 31.2303 ], [ 78.1604, 31.2319 ], [ 78.1714, 31.2318 ], [ 78.1765, 31.23 ], [ 78.1876, 31.2222 ], [ 78.2003, 31.2257 ], [ 78.2068, 31.2372 ], [ 78.2184, 31.2387 ], [ 78.2326, 31.235 ], [ 78.2376, 31.2398 ], [ 78.2375, 31.2439 ], [ 78.2426, 31.2434 ], [ 78.2482, 31.2467 ], [ 78.2497, 31.2506 ], [ 78.269, 31.2714 ], [ 78.2782, 31.2667 ], [ 78.2885, 31.2642 ], [ 78.2934, 31.266 ], [ 78.2984, 31.2882 ], [ 78.3169, 31.2851 ], [ 78.3266, 31.2882 ], [ 78.3361, 31.2875 ], [ 78.3563, 31.2909 ], [ 78.3693, 31.2879 ], [ 78.3735, 31.2792 ], [ 78.3814, 31.2815 ], [ 78.3833, 31.2743 ], [ 78.3931, 31.2623 ], [ 78.3913, 31.253 ], [ 78.3975, 31.2478 ], [ 78.4144, 31.2509 ], [ 78.4195, 31.2599 ], [ 78.4271, 31.256 ], [ 78.4317, 31.2496 ], [ 78.4441, 31.2442 ], [ 78.4572, 31.2278 ], [ 78.4666, 31.2209 ], [ 78.4672, 31.2118 ], [ 78.4701, 31.2038 ], [ 78.477, 31.2051 ], [ 78.5141, 31.2039 ], [ 78.5371, 31.2067 ], [ 78.5502, 31.2185 ], [ 78.5563, 31.2274 ], [ 78.5619, 31.2296 ], [ 78.5666, 31.2337 ], [ 78.5839, 31.2343 ], [ 78.5954, 31.2364 ], [ 78.6006, 31.2359 ], [ 78.61, 31.2311 ], [ 78.6171, 31.2252 ], [ 78.6283, 31.2219 ], [ 78.6345, 31.2219 ], [ 78.638, 31.2084 ], [ 78.6455, 31.2025 ], [ 78.6477, 31.1947 ], [ 78.6598, 31.2033 ], [ 78.6761, 31.2032 ], [ 78.6956, 31.1963 ], [ 78.7075, 31.195 ], [ 78.7204, 31.197 ], [ 78.7495, 31.1944 ], [ 78.7709, 31.1973 ], [ 78.7888, 31.2045 ], [ 78.795, 31.205 ], [ 78.8032, 31.1992 ], [ 78.798, 31.1889 ], [ 78.7976, 31.1825 ], [ 78.8005, 31.1783 ], [ 78.8117, 31.1694 ], [ 78.8102, 31.1639 ], [ 78.8187, 31.1472 ], [ 78.8247, 31.1436 ], [ 78.829, 31.1363 ], [ 78.8378, 31.1307 ], [ 78.852, 31.1262 ], [ 78.8623, 31.1124 ], [ 78.88, 31.1038 ], [ 78.8907, 31.1061 ], [ 78.8968, 31.1056 ], [ 78.8994, 31.1076 ], [ 78.9006, 31.1121 ], [ 78.9038, 31.1155 ], [ 78.9078, 31.1163 ], [ 78.9127, 31.1162 ], [ 78.9205, 31.1076 ], [ 78.9421, 31.105 ], [ 78.9524, 31.1084 ], [ 78.9657, 31.1154 ], [ 78.9861, 31.1166 ], [ 78.9858, 31.1183 ], [ 78.9924, 31.1178 ], [ 79.0001, 31.1201 ], [ 79.0103, 31.1262 ], [ 79.0391, 31.1265 ], [ 79.0481, 31.1297 ], [ 79.0537, 31.1348 ], [ 79.086, 31.1314 ], [ 79.0966, 31.1289 ], [ 79.1113, 31.121 ], [ 79.1206, 31.1218 ], [ 79.1285, 31.119 ], [ 79.1371, 31.1182 ], [ 79.1611, 31.1088 ], [ 79.189, 31.1119 ], [ 79.2013, 31.1107 ], [ 79.219, 31.1046 ], [ 79.273, 31.1044 ], [ 79.281, 31.1065 ], [ 79.2906, 31.1054 ], [ 79.2993, 31.1006 ], [ 79.324, 31.1093 ], [ 79.3376, 31.1045 ], [ 79.3505, 31.1067 ], [ 79.3692, 31.1059 ], [ 79.3901, 31.0939 ], [ 79.3924, 31.0798 ], [ 79.3997, 31.0803 ], [ 79.4062, 31.077 ], [ 79.4084, 31.073 ], [ 79.4089, 31.0565 ], [ 79.4131, 31.0376 ], [ 79.4218, 31.0358 ], [ 79.4659, 31.0414 ], [ 79.4798, 31.0381 ], [ 79.4874, 31.0411 ], [ 79.4971, 31.0414 ], [ 79.5013, 31.0391 ], [ 79.5029, 31.0376 ], [ 79.5028, 31.0276 ], [ 79.5049, 31.0238 ], [ 79.5163, 31.0162 ], [ 79.5225, 31.0081 ], [ 79.5194, 30.9934 ], [ 79.5377, 30.9913 ], [ 79.5375, 30.987 ], [ 79.5333, 30.9834 ], [ 79.5311, 30.9741 ], [ 79.5417, 30.9654 ], [ 79.5536, 30.9589 ], [ 79.5757, 30.9544 ], [ 79.5824, 30.9483 ], [ 79.5848, 30.944 ], [ 79.5872, 30.9431 ], [ 79.5924, 30.9443 ], [ 79.5943, 30.9479 ], [ 79.6036, 30.9527 ], [ 79.6068, 30.9566 ], [ 79.6158, 30.9618 ], [ 79.6242, 30.9653 ], [ 79.6426, 30.9676 ], [ 79.6494, 30.9706 ], [ 79.6498, 30.9799 ], [ 79.6516, 30.9844 ], [ 79.6539, 30.9858 ], [ 79.6626, 30.9869 ], [ 79.6712, 30.9843 ], [ 79.6932, 30.9817 ], [ 79.7048, 30.9834 ], [ 79.7141, 30.9857 ], [ 79.7248, 30.9909 ], [ 79.7325, 31.002 ], [ 79.7381, 31.0061 ], [ 79.7421, 31.0068 ], [ 79.7456, 31.0062 ], [ 79.7514, 30.9989 ], [ 79.7603, 30.9931 ], [ 79.7924, 30.9842 ], [ 79.805, 30.9778 ], [ 79.8107, 30.9776 ], [ 79.8235, 30.983 ], [ 79.8303, 30.984 ], [ 79.841, 30.9809 ], [ 79.852, 30.9802 ], [ 79.8586, 30.9751 ], [ 79.8638, 30.9661 ], [ 79.8712, 30.9492 ], [ 79.8746, 30.9388 ], [ 79.8747, 30.9304 ], [ 79.8776, 30.9264 ], [ 79.8975, 30.9217 ], [ 79.9031, 30.9118 ], [ 79.906, 30.9096 ], [ 79.9081, 30.9033 ], [ 79.915, 30.8922 ], [ 79.9211, 30.8909 ], [ 79.9344, 30.893 ], [ 79.9416, 30.892 ], [ 79.9578, 30.8863 ], [ 79.9495, 30.8874 ], [ 79.9353, 30.885 ], [ 79.9471, 30.8772 ], [ 79.9575, 30.8747 ], [ 79.9685, 30.8695 ], [ 79.9826, 30.8604 ], [ 79.988, 30.8543 ], [ 79.9919, 30.8355 ], [ 80.0247, 30.8063 ], [ 80.0374, 30.7985 ], [ 80.0472, 30.7899 ], [ 80.0568, 30.775 ], [ 80.0638, 30.7595 ], [ 80.0628, 30.7471 ], [ 80.0555, 30.7268 ], [ 80.0624, 30.6941 ], [ 80.0672, 30.6917 ], [ 80.0881, 30.6923 ], [ 80.1002, 30.6881 ], [ 80.1128, 30.6803 ], [ 80.1214, 30.6729 ], [ 80.1229, 30.6693 ], [ 80.1309, 30.6648 ], [ 80.1574, 30.6446 ], [ 80.1634, 30.6357 ], [ 80.1766, 30.627 ], [ 80.1855, 30.6164 ], [ 80.2004, 30.5896 ], [ 80.2053, 30.5846 ], [ 80.2298, 30.5726 ], [ 80.2386, 30.5657 ], [ 80.2478, 30.5686 ], [ 80.2532, 30.5752 ], [ 80.257, 30.5742 ], [ 80.2569, 30.5684 ], [ 80.2606, 30.5665 ], [ 80.2625, 30.5702 ], [ 80.2676, 30.5738 ], [ 80.278, 30.5745 ], [ 80.2937, 30.5695 ], [ 80.2989, 30.5697 ], [ 80.3056, 30.5675 ], [ 80.3156, 30.554 ], [ 80.3683, 30.5269 ], [ 80.3813, 30.5235 ], [ 80.3914, 30.5298 ], [ 80.4006, 30.5312 ], [ 80.4063, 30.5264 ], [ 80.4095, 30.5187 ], [ 80.4156, 30.5113 ], [ 80.4235, 30.5057 ], [ 80.4569, 30.4939 ], [ 80.4897, 30.4891 ], [ 80.4978, 30.4814 ], [ 80.5057, 30.4688 ], [ 80.52, 30.4566 ], [ 80.5265, 30.4543 ], [ 80.5306, 30.4611 ], [ 80.5351, 30.464 ], [ 80.5442, 30.4633 ], [ 80.5517, 30.4647 ], [ 80.5556, 30.4672 ], [ 80.5612, 30.4757 ], [ 80.5664, 30.4886 ], [ 80.5767, 30.4897 ], [ 80.5842, 30.4872 ], [ 80.6287, 30.4598 ], [ 80.6382, 30.4504 ], [ 80.649, 30.4453 ], [ 80.6607, 30.4458 ], [ 80.6659, 30.4434 ], [ 80.6998, 30.4183 ], [ 80.7375, 30.3981 ], [ 80.7567, 30.3793 ], [ 80.776, 30.3432 ], [ 80.7937, 30.3303 ], [ 80.8113, 30.32 ], [ 80.8458, 30.3072 ], [ 80.8835, 30.2996 ], [ 80.8965, 30.2939 ], [ 80.9167, 30.288 ], [ 80.9406, 30.2845 ], [ 80.9725, 30.2744 ], [ 80.9941, 30.2705 ], [ 81.011, 30.2628 ], [ 81.0171, 30.2575 ], [ 81.02, 30.2507 ], [ 81.0189, 30.2368 ], [ 81.0142, 30.2395 ], [ 81.0072, 30.2406 ], [ 81.0, 30.2451 ], [ 80.9905, 30.2468 ], [ 80.9839, 30.2439 ], [ 80.9779, 30.238 ], [ 80.9374, 30.2348 ], [ 80.9292, 30.2359 ], [ 80.923, 30.2317 ], [ 80.9174, 30.2246 ], [ 80.9119, 30.2232 ], [ 80.9041, 30.2142 ], [ 80.899, 30.2123 ], [ 80.8959, 30.2062 ], [ 80.8857, 30.1944 ], [ 80.8872, 30.1883 ], [ 80.8818, 30.1813 ], [ 80.873, 30.1758 ], [ 80.8699, 30.1757 ], [ 80.8646, 30.1689 ], [ 80.8687, 30.1666 ], [ 80.8731, 30.1609 ], [ 80.8726, 30.1532 ], [ 80.8805, 30.1325 ], [ 80.8792, 30.1285 ], [ 80.8758, 30.1263 ], [ 80.8697, 30.1254 ], [ 80.8643, 30.1209 ], [ 80.8567, 30.1203 ], [ 80.856, 30.1188 ], [ 80.8467, 30.1161 ], [ 80.8436, 30.1105 ], [ 80.8479, 30.1066 ], [ 80.8471, 30.1023 ], [ 80.8392, 30.0977 ], [ 80.8318, 30.0972 ], [ 80.828, 30.1 ], [ 80.8234, 30.0998 ], [ 80.8212, 30.0971 ], [ 80.8172, 30.0963 ], [ 80.8157, 30.093 ], [ 80.808, 30.09 ], [ 80.8034, 30.0856 ], [ 80.8012, 30.0809 ], [ 80.7926, 30.0733 ], [ 80.7814, 30.0569 ], [ 80.7778, 30.0543 ], [ 80.7629, 30.0495 ], [ 80.7611, 30.0435 ], [ 80.7574, 30.0394 ], [ 80.7573, 30.0311 ], [ 80.7599, 30.0276 ], [ 80.7593, 30.0239 ], [ 80.7561, 30.0206 ], [ 80.7494, 30.0066 ], [ 80.7398, 29.9995 ], [ 80.7213, 30.0004 ], [ 80.7141, 29.9902 ], [ 80.7062, 29.9857 ], [ 80.7023, 29.98 ], [ 80.6988, 29.9795 ], [ 80.6918, 29.9741 ], [ 80.6854, 29.967 ], [ 80.6839, 29.9625 ], [ 80.6779, 29.9581 ], [ 80.6582, 29.9551 ], [ 80.6503, 29.9559 ], [ 80.638, 29.9636 ], [ 80.6315, 29.9652 ], [ 80.6231, 29.964 ], [ 80.6131, 29.9592 ], [ 80.6053, 29.9587 ], [ 80.5922, 29.9484 ], [ 80.581, 29.9325 ], [ 80.5728, 29.9151 ], [ 80.5714, 29.909 ], [ 80.5743, 29.8944 ], [ 80.5677, 29.8792 ], [ 80.5586, 29.8706 ], [ 80.5592, 29.8685 ], [ 80.5633, 29.8664 ], [ 80.5565, 29.8621 ], [ 80.5531, 29.8564 ], [ 80.5552, 29.853 ], [ 80.5545, 29.8492 ], [ 80.5503, 29.8501 ], [ 80.5454, 29.8463 ], [ 80.5406, 29.8471 ], [ 80.5376, 29.8387 ], [ 80.5329, 29.8382 ], [ 80.5299, 29.8336 ], [ 80.5256, 29.8321 ], [ 80.5257, 29.8291 ], [ 80.5234, 29.827 ], [ 80.509, 29.823 ], [ 80.5068, 29.8193 ], [ 80.5029, 29.8174 ], [ 80.4992, 29.811 ], [ 80.5019, 29.8088 ], [ 80.4956, 29.8021 ], [ 80.4972, 29.7975 ], [ 80.4941, 29.7953 ], [ 80.4813, 29.7957 ], [ 80.4656, 29.8023 ], [ 80.456, 29.8024 ], [ 80.4492, 29.7989 ], [ 80.443, 29.8004 ], [ 80.4377, 29.8057 ], [ 80.4306, 29.798 ], [ 80.4177, 29.7957 ], [ 80.4148, 29.7919 ], [ 80.4086, 29.7944 ], [ 80.4089, 29.784 ], [ 80.4054, 29.7818 ], [ 80.4064, 29.7784 ], [ 80.4016, 29.7738 ], [ 80.3979, 29.7631 ], [ 80.3993, 29.7593 ], [ 80.3976, 29.7583 ], [ 80.3927, 29.7604 ], [ 80.3869, 29.7585 ], [ 80.3875, 29.7505 ], [ 80.374, 29.7491 ], [ 80.3697, 29.7506 ], [ 80.367, 29.7464 ], [ 80.3659, 29.7402 ], [ 80.3713, 29.7344 ], [ 80.3679, 29.73 ], [ 80.3677, 29.7249 ], [ 80.3702, 29.7216 ], [ 80.377, 29.7203 ], [ 80.377, 29.7182 ], [ 80.3737, 29.7153 ], [ 80.3762, 29.7128 ], [ 80.3788, 29.7025 ], [ 80.3816, 29.701 ], [ 80.3822, 29.6886 ], [ 80.3862, 29.6858 ], [ 80.385, 29.679 ], [ 80.386, 29.675 ], [ 80.3918, 29.6711 ], [ 80.3922, 29.6645 ], [ 80.4004, 29.6626 ], [ 80.4004, 29.6586 ], [ 80.4082, 29.6596 ], [ 80.4117, 29.6536 ], [ 80.4159, 29.6542 ], [ 80.4182, 29.6512 ], [ 80.4157, 29.6443 ], [ 80.4219, 29.6391 ], [ 80.4212, 29.634 ], [ 80.4228, 29.6302 ], [ 80.4199, 29.6264 ], [ 80.4127, 29.6253 ], [ 80.4102, 29.6215 ], [ 80.4098, 29.6151 ], [ 80.4074, 29.6128 ], [ 80.4097, 29.6098 ], [ 80.4106, 29.6049 ], [ 80.4095, 29.5949 ], [ 80.4049, 29.5895 ], [ 80.3932, 29.5816 ], [ 80.39, 29.572 ], [ 80.3808, 29.5715 ], [ 80.3805, 29.5613 ], [ 80.3654, 29.5641 ], [ 80.364, 29.5616 ], [ 80.3657, 29.5566 ], [ 80.3506, 29.5554 ], [ 80.3444, 29.5529 ], [ 80.3473, 29.5486 ], [ 80.3434, 29.5416 ], [ 80.3507, 29.5402 ], [ 80.3598, 29.5319 ], [ 80.3501, 29.5235 ], [ 80.3513, 29.5189 ], [ 80.3442, 29.511 ], [ 80.3421, 29.5099 ], [ 80.3353, 29.5128 ], [ 80.3304, 29.5053 ], [ 80.315, 29.4978 ], [ 80.3161, 29.4926 ], [ 80.3152, 29.4848 ], [ 80.3058, 29.4861 ], [ 80.3014, 29.4905 ], [ 80.2978, 29.488 ], [ 80.298, 29.4834 ], [ 80.2948, 29.4789 ], [ 80.2884, 29.4772 ], [ 80.2897, 29.472 ], [ 80.2982, 29.4604 ], [ 80.3029, 29.4571 ], [ 80.3042, 29.4531 ], [ 80.2994, 29.4509 ], [ 80.2975, 29.4536 ], [ 80.2901, 29.4501 ], [ 80.2822, 29.451 ], [ 80.2806, 29.4539 ], [ 80.2822, 29.4575 ], [ 80.2771, 29.4584 ], [ 80.271, 29.4551 ], [ 80.2757, 29.4526 ], [ 80.276, 29.4495 ], [ 80.2714, 29.4507 ], [ 80.2686, 29.4485 ], [ 80.2598, 29.4518 ], [ 80.2574, 29.448 ], [ 80.2477, 29.4467 ], [ 80.2448, 29.4445 ], [ 80.2447, 29.4411 ], [ 80.249, 29.4368 ], [ 80.249, 29.4324 ], [ 80.2457, 29.4235 ], [ 80.2477, 29.416 ], [ 80.2433, 29.4116 ], [ 80.2477, 29.4074 ], [ 80.2658, 29.3972 ], [ 80.274, 29.3949 ], [ 80.2769, 29.3922 ], [ 80.2746, 29.3862 ], [ 80.2806, 29.3789 ], [ 80.2728, 29.3732 ], [ 80.2729, 29.3637 ], [ 80.2808, 29.3599 ], [ 80.2811, 29.3476 ], [ 80.2851, 29.3419 ], [ 80.2922, 29.3366 ], [ 80.2929, 29.3302 ], [ 80.2986, 29.3237 ], [ 80.3113, 29.3221 ], [ 80.3181, 29.3156 ], [ 80.3176, 29.3082 ], [ 80.3201, 29.3038 ], [ 80.3196, 29.3016 ], [ 80.313, 29.2915 ], [ 80.3078, 29.2889 ], [ 80.306, 29.2853 ], [ 80.3057, 29.2728 ], [ 80.3011, 29.2617 ], [ 80.3019, 29.255 ], [ 80.3002, 29.2496 ], [ 80.302, 29.242 ], [ 80.2924, 29.2319 ], [ 80.2978, 29.2214 ], [ 80.2958, 29.2107 ], [ 80.299, 29.205 ], [ 80.2953, 29.1976 ], [ 80.2913, 29.1952 ], [ 80.2862, 29.1968 ], [ 80.2766, 29.207 ], [ 80.2625, 29.2067 ], [ 80.2595, 29.2108 ], [ 80.2586, 29.2178 ], [ 80.2544, 29.2214 ], [ 80.2499, 29.2206 ], [ 80.2488, 29.2153 ], [ 80.2424, 29.2033 ], [ 80.2436, 29.2004 ], [ 80.2518, 29.1956 ], [ 80.2596, 29.1874 ], [ 80.2623, 29.1747 ], [ 80.2601, 29.1705 ], [ 80.26, 29.1658 ], [ 80.2744, 29.1448 ], [ 80.2734, 29.142 ], [ 80.2557, 29.1379 ], [ 80.2505, 29.129 ], [ 80.235, 29.1184 ], [ 80.2114, 29.1218 ], [ 80.2052, 29.1293 ], [ 80.196, 29.1317 ], [ 80.186, 29.1373 ], [ 80.1832, 29.1353 ], [ 80.1798, 29.1285 ], [ 80.1695, 29.1257 ], [ 80.1655, 29.1169 ], [ 80.146, 29.103 ], [ 80.1301, 29.061 ], [ 80.1382, 29.0589 ], [ 80.1281, 29.0317 ], [ 80.133, 29.0304 ], [ 80.1263, 29.013 ], [ 80.1379, 29.0095 ], [ 80.1373, 29.0073 ], [ 80.1285, 29.0059 ], [ 80.1196, 28.9817 ], [ 80.1019, 28.9864 ], [ 80.0977, 28.9752 ], [ 80.0601, 28.9163 ], [ 80.0663, 28.8373 ], [ 80.0724, 28.8297 ], [ 80.0638, 28.8319 ], [ 80.0584, 28.8353 ], [ 80.0341, 28.8098 ], [ 80.032, 28.8035 ], [ 80.0257, 28.7999 ], [ 80.0362, 28.7907 ], [ 80.0405, 28.7831 ], [ 80.0345, 28.769 ], [ 80.0348, 28.7632 ], [ 80.0057, 28.7295 ], [ 79.9883, 28.717 ], [ 79.9678, 28.7156 ], [ 79.9529, 28.7175 ], [ 79.9295, 28.7265 ], [ 79.9224, 28.7327 ], [ 79.9215, 28.745 ], [ 79.9181, 28.7522 ], [ 79.9117, 28.7593 ], [ 79.9101, 28.7633 ], [ 79.912, 28.765 ], [ 79.9057, 28.7721 ], [ 79.8993, 28.7739 ], [ 79.8889, 28.7858 ], [ 79.8934, 28.7919 ], [ 79.8981, 28.7949 ], [ 79.9013, 28.8021 ], [ 79.8801, 28.7968 ], [ 79.8673, 28.7964 ], [ 79.8534, 28.8008 ], [ 79.8405, 28.8087 ], [ 79.8462, 28.8213 ], [ 79.8497, 28.8217 ], [ 79.8604, 28.8179 ], [ 79.8712, 28.8164 ], [ 79.8756, 28.8183 ], [ 79.8753, 28.8302 ], [ 79.8606, 28.8341 ], [ 79.8556, 28.8391 ], [ 79.854, 28.8443 ], [ 79.8495, 28.8454 ], [ 79.8417, 28.8426 ], [ 79.8297, 28.8467 ], [ 79.8245, 28.8448 ], [ 79.8128, 28.8302 ], [ 79.8157, 28.8247 ], [ 79.8162, 28.8217 ], [ 79.8147, 28.8191 ], [ 79.8159, 28.8123 ], [ 79.8141, 28.8106 ], [ 79.8113, 28.8114 ], [ 79.805, 28.8087 ], [ 79.8013, 28.8045 ], [ 79.792, 28.803 ], [ 79.7854, 28.8062 ], [ 79.7834, 28.8054 ], [ 79.7821, 28.8132 ], [ 79.7862, 28.8209 ], [ 79.7894, 28.8197 ], [ 79.7919, 28.8152 ], [ 79.7948, 28.8147 ], [ 79.797, 28.8165 ], [ 79.8012, 28.8296 ], [ 79.8015, 28.8333 ], [ 79.7992, 28.8362 ], [ 79.7937, 28.8393 ], [ 79.7943, 28.843 ], [ 79.7982, 28.846 ], [ 79.7946, 28.8529 ], [ 79.8081, 28.8563 ], [ 79.8086, 28.8628 ], [ 79.8028, 28.8718 ], [ 79.7916, 28.8704 ], [ 79.7906, 28.8774 ], [ 79.7745, 28.8918 ], [ 79.7598, 28.8895 ], [ 79.75, 28.8934 ], [ 79.7449, 28.8898 ], [ 79.7404, 28.8832 ], [ 79.7328, 28.8831 ], [ 79.7284, 28.8851 ], [ 79.7122, 28.8807 ], [ 79.7067, 28.8752 ], [ 79.7052, 28.8702 ], [ 79.6971, 28.8703 ], [ 79.6881, 28.8682 ], [ 79.6864, 28.867 ], [ 79.6843, 28.8573 ], [ 79.6729, 28.8576 ], [ 79.6671, 28.8541 ], [ 79.6662, 28.8483 ], [ 79.6541, 28.8487 ], [ 79.6433, 28.8532 ], [ 79.6411, 28.8565 ], [ 79.6308, 28.8589 ], [ 79.619, 28.8676 ], [ 79.6135, 28.8687 ], [ 79.6036, 28.8647 ], [ 79.5923, 28.8666 ], [ 79.5766, 28.8503 ], [ 79.5658, 28.8495 ] ] ] ] } },
{ "type": "Feature", "properties": { "GID_1": "Z05.35_1", "GID_0": "Z05", "COUNTRY": "India", "NAME_1": "Uttarakhand", "VARNAME_1": "Uttarakhand", "NL_NAME_1": "NA", "TYPE_1": "State", "ENGTYPE_1": "State", "CC_1": "NA", "HASC_1": "IN.UT", "ISO_1": "NA" }, "geometry": { "type": "MultiPolygon", "coordinates": [ [ [ [ 80.0879, 30.7907 ], [ 80.1031, 30.7797 ], [ 80.1079, 30.779 ], [ 80.1131, 30.7808 ], [ 80.1253, 30.7935 ], [ 80.1383, 30.7967 ], [ 80.1377, 30.8055 ], [ 80.1395, 30.8112 ], [ 80.1447, 30.8132 ], [ 80.1573, 30.8128 ], [ 80.1675, 30.8072 ], [ 80.1812, 30.7893 ], [ 80.1849, 30.7866 ], [ 80.186, 30.7704 ], [ 80.1905, 30.7638 ], [ 80.1973, 30.76 ], [ 80.2072, 30.7575 ], [ 80.2108, 30.7641 ], [ 80.2178, 30.767 ], [ 80.2228, 30.7652 ], [ 80.2281, 30.758 ], [ 80.2373, 30.7407 ], [ 80.2373, 30.7377 ], [ 80.2326, 30.7296 ], [ 80.2309, 30.7226 ], [ 80.2236, 30.7147 ], [ 80.2198, 30.6973 ], [ 80.2099, 30.6914 ], [ 80.1972, 30.6895 ], [ 80.1855, 30.6823 ], [ 80.1821, 30.6781 ], [ 80.1805, 30.6699 ], [ 80.1832, 30.6653 ], [ 80.1884, 30.6613 ], [ 80.201, 30.655 ], [ 80.209, 30.6451 ], [ 80.2078, 30.6367 ], [ 80.1992, 30.6275 ], [ 80.1985, 30.6231 ], [ 80.1996, 30.6189 ], [ 80.2113, 30.6155 ], [ 80.2125, 30.6135 ], [ 80.2119, 30.6078 ], [ 80.2059, 30.6012 ], [ 80.2109, 30.5826 ], [ 80.2053, 30.5846 ], [ 80.2004, 30.5896 ], [ 80.1855, 30.6164 ], [ 80.1766, 30.627 ], [ 80.1634, 30.6357 ], [ 80.1574, 30.6446 ], [ 80.1309, 30.6648 ], [ 80.1229, 30.6693 ], [ 80.1214, 30.6729 ], [ 80.1128, 30.6803 ], [ 80.1002, 30.6881 ], [ 80.0881, 30.6923 ], [ 80.0672, 30.6917 ], [ 80.0624, 30.6941 ], [ 80.0555, 30.7268 ], [ 80.0628, 30.7471 ], [ 80.0638, 30.7595 ], [ 80.0568, 30.775 ], [ 80.0472, 30.7899 ], [ 80.0374, 30.7985 ], [ 80.0247, 30.8063 ], [ 79.9919, 30.8355 ], [ 79.988, 30.8543 ], [ 79.9826, 30.8604 ], [ 79.9685, 30.8695 ], [ 79.9575, 30.8747 ], [ 79.9471, 30.8772 ], [ 79.9353, 30.885 ], [ 79.9495, 30.8874 ], [ 79.9598, 30.8856 ], [ 79.9676, 30.8823 ], [ 79.9809, 30.8734 ], [ 79.9965, 30.8663 ], [ 80.0181, 30.8465 ], [ 80.0278, 30.8434 ], [ 80.0441, 30.844 ], [ 80.0482, 30.839 ], [ 80.0503, 30.8328 ], [ 80.0642, 30.8245 ], [ 80.0695, 30.8193 ], [ 80.0741, 30.7997 ], [ 80.0831, 30.7953 ], [ 80.0879, 30.7907 ] ] ] ] } },
{ "type": "Feature", "properties": { "GID_1": "Z09.35_1", "GID_0": "Z09", "COUNTRY": "India", "NAME_1": "Uttarakhand", "VARNAME_1": "Uttarakhand", "NL_NAME_1": "NA", "TYPE_1": "State", "ENGTYPE_1": "State", "CC_1": "NA", "HASC_1": "IN.UT", "ISO_1": "NA" }, "geometry": { "type": "MultiPolygon", "coordinates": [ [ [ [ 78.9069, 31.2592 ], [ 78.9131, 31.2607 ], [ 78.9166, 31.2666 ], [ 78.916, 31.2872 ], [ 78.9235, 31.3015 ], [ 78.9248, 31.3067 ], [ 78.9252, 31.3144 ], [ 78.9231, 31.3254 ], [ 78.9254, 31.3318 ], [ 78.9302, 31.3379 ], [ 78.937, 31.3425 ], [ 78.9612, 31.352 ], [ 78.9806, 31.357 ], [ 78.9897, 31.3618 ], [ 78.9934, 31.3675 ], [ 78.9946, 31.3793 ], [ 79.0068, 31.4006 ], [ 79.0158, 31.4111 ], [ 79.0282, 31.4207 ], [ 79.0342, 31.428 ], [ 79.034, 31.4446 ], [ 79.037, 31.4574 ], [ 79.0479, 31.4704 ], [ 79.0568, 31.4723 ], [ 79.0661, 31.4638 ], [ 79.0762, 31.4583 ], [ 79.0892, 31.4552 ], [ 79.1001, 31.4479 ], [ 79.1289, 31.4387 ], [ 79.1364, 31.43 ], [ 79.1486, 31.4111 ], [ 79.1635, 31.3989 ], [ 79.1742, 31.3774 ], [ 79.1882, 31.36 ], [ 79.1948, 31.3536 ], [ 79.2121, 31.3446 ], [ 79.2216, 31.3373 ], [ 79.2227, 31.3316 ], [ 79.2205, 31.3279 ], [ 79.2215, 31.3194 ], [ 79.249, 31.2945 ], [ 79.2495, 31.2896 ], [ 79.2477, 31.2853 ], [ 79.2371, 31.2757 ], [ 79.2338, 31.2692 ], [ 79.2339, 31.254 ], [ 79.2433, 31.2469 ], [ 79.2628, 31.2453 ], [ 79.2728, 31.2307 ], [ 79.2884, 31.1956 ], [ 79.2878, 31.1884 ], [ 79.2821, 31.1809 ], [ 79.2849, 31.1701 ], [ 79.2961, 31.1571 ], [ 79.2996, 31.1492 ], [ 79.3087, 31.1401 ], [ 79.3189, 31.139 ], [ 79.3232, 31.1352 ], [ 79.3251, 31.1298 ], [ 79.3419, 31.1286 ], [ 79.3539, 31.1218 ], [ 79.3606, 31.1202 ], [ 79.3792, 31.1203 ], [ 79.3819, 31.1184 ], [ 79.3864, 31.1094 ], [ 79.3901, 31.0939 ], [ 79.3692, 31.1059 ], [ 79.3505, 31.1067 ], [ 79.3376, 31.1045 ], [ 79.324, 31.1093 ], [ 79.2993, 31.1006 ], [ 79.2906, 31.1054 ], [ 79.281, 31.1065 ], [ 79.273, 31.1044 ], [ 79.219, 31.1046 ], [ 79.2013, 31.1107 ], [ 79.189, 31.1119 ], [ 79.1611, 31.1088 ], [ 79.1371, 31.1182 ], [ 79.1285, 31.119 ], [ 79.1206, 31.1218 ], [ 79.1113, 31.121 ], [ 79.0966, 31.1289 ], [ 79.086, 31.1314 ], [ 79.0537, 31.1348 ], [ 79.0481, 31.1297 ], [ 79.0391, 31.1265 ], [ 79.0103, 31.1262 ], [ 79.0001, 31.1201 ], [ 78.9924, 31.1178 ], [ 78.9858, 31.1183 ], [ 78.9812, 31.143 ], [ 78.9777, 31.1518 ], [ 78.9607, 31.1746 ], [ 78.9319, 31.1991 ], [ 78.9296, 31.205 ], [ 78.9273, 31.2251 ], [ 78.9232, 31.236 ], [ 78.9069, 31.2462 ], [ 78.9059, 31.2502 ], [ 78.9069, 31.2592 ] ] ] ] } }
]
}
